NORAD_CAT_ID,OBJECT_NAME,OBJECT_TYPE,EPOCH,MEAN_MOTION,ECCENTRICITY,INCLINATION,RA_OF_ASC_NODE,ARG_OF_PERICENTER,MEAN_ANOMALY,BSTAR,MEAN_MOTION_DOT,MEAN_MOTION_DDOT,TLE_LINE0,TLE_LINE1,TLE_LINE2,SEMIMAJOR_AXIS,PERIOD,APOGEE,PERIGEE,DECAYED
54084.0,STARLINK-5183,PAYLOAD,2024-04-11 14:09:30,15.0886557,0.0001124,53.2151,223.6668,81.5254,278.5866,0.0004322,6.602e-05,0.0,0 STARLINK-5183,1 54084U 22136AK  24102.58993250  .00006602  00000-0  43220-3 0  9993,2 54084  53.2151 223.6668 0001124  81.5254 278.5866 15.08865570 81743,6917.802,95.436,540.445,538.89,0.0
54084.0,STARLINK-5183,PAYLOAD,2024-04-12 12:24:54,15.08849247,0.0002072,53.2166,219.5021,84.7575,275.3654,-2.5642e-05,-6.96e-06,0.0,0 STARLINK-5183,1 54084U 22136AK  24103.51729276 -.00000696  00000-0 -25642-4 0  9990,2 54084  53.2166 219.5021 0002072  84.7575 275.3654 15.08849247 82362,6917.852,95.437,541.151,538.284,0.0
54084.0,STARLINK-5183,PAYLOAD,2024-04-12 14:00:17,15.08846597,0.0001758,53.2172,219.2066,81.1447,278.9744,-6.3279e-05,-1.295e-05,0.0,0 STARLINK-5183,1 54084U 22136AK  24103.58353364 -.00001295  00000-0 -63279-4 0  9992,2 54084  53.2172 219.2066 0001758  81.1447 278.9744 15.08846597 81895,6917.86,95.437,540.941,538.509,0.0
54084.0,STARLINK-5183,PAYLOAD,2024-04-13 13:51:03,15.08850984,0.0001395,53.2175,214.7459,84.5403,275.5749,8.33e-05,1.038e-05,0.0,0 STARLINK-5183,1 54084U 22136AK  24104.57712896  .00001038  00000-0  83300-4 0  9991,2 54084  53.2175 214.7459 0001395  84.5403 275.5749 15.08850984 82524,6917.847,95.437,540.677,538.747,0.0
54084.0,STARLINK-5183,PAYLOAD,2024-04-14 12:06:29,15.08821407,0.0001421,53.2185,210.5844,106.0669,254.048,0.00080471,0.00012536,0.0,0 STARLINK-5183,1 54084U 22136AK  24105.50450667  .00012536  00000-0  80471-3 0  9990,2 54084  53.2185 210.5844 0001421 106.0669 254.0480 15.08821407 82668,6917.937,95.439,540.785,538.819,0.0
54084.0,STARLINK-5183,PAYLOAD,2024-04-14 13:41:51,15.08843716,0.0001671,53.2188,210.2873,105.8831,254.2345,0.00012694,1.733e-05,0.0,0 STARLINK-5183,1 54084U 22136AK  24105.57073148  .00001733  00000-0  12694-3 0  9991,2 54084  53.2188 210.2873 0001671 105.8831 254.2345 15.08843716 82675,6917.869,95.437,540.89,538.578,0.0
54084.0,STARLINK-5183,PAYLOAD,2024-04-15 11:57:14,15.08847489,0.0001616,53.219,206.1252,94.5796,265.5381,0.00012595,1.717e-05,0.0,0 STARLINK-5183,1 54084U 22136AK  24106.49808804  .00001717  00000-0  12595-3 0  9990,2 54084  53.2190 206.1252 0001616  94.5796 265.5381 15.08847489 82335,6917.857,95.437,540.84,538.605,0.0
54084.0,STARLINK-5183,PAYLOAD,2024-04-15 23:04:56,15.08850073,9.14e-05,53.2156,204.0424,85.5102,274.5994,9.341e-05,1.2e-05,0.0,0 STARLINK-5183,1 54084U 22136AK  24106.96176281  .00001200  00000-0  93410-4 0  9992,2 54084  53.2156 204.0424 0000914  85.5102 274.5994 15.08850073 82889,6917.85,95.437,540.347,539.082,0.0
54084.0,STARLINK-5183,PAYLOAD,2024-04-16 13:23:24,15.08856196,0.0001526,53.2179,201.3677,96.0268,264.0898,0.00025571,3.786e-05,0.0,0 STARLINK-5183,1 54084U 22136AK  24107.55792233  .00003786  00000-0  25571-3 0  9992,2 54084  53.2179 201.3677 0001526  96.0268 264.0898 15.08856196 82490,6917.831,95.437,540.752,538.64,0.0
54084.0,STARLINK-5183,PAYLOAD,2024-04-17 05:17:15,15.08850058,0.0001648,53.2182,198.395,99.7995,260.3183,0.00010332,1.357e-05,0.0,0 STARLINK-5183,1 54084U 22136AK  24108.22032273  .00001357  00000-0  10332-3 0  9999,2 54084  53.2182 198.3950 0001648  99.7995 260.3183 15.08850058 83077,6917.85,95.437,540.855,538.575,0.0
54084.0,STARLINK-5183,PAYLOAD,2024-04-17 13:14:11,15.08851506,0.0001404,53.2158,196.904,82.0511,278.064,6.651e-05,7.71e-06,0.0,0 STARLINK-5183,1 54084U 22136AK  24108.55152145  .00000771  00000-0  66510-4 0  9995,2 54084  53.2158 196.9040 0001404  82.0511 278.0640 15.08851506 82648,6917.845,95.437,540.681,538.739,0.0
54084.0,STARLINK-5183,PAYLOAD,2024-04-18 11:29:37,15.08810415,0.0001357,53.2157,192.7408,116.8425,243.2706,-0.00035885,-5.99e-05,0.0,0 STARLINK-5183,1 54084U 22136AK  24109.47890859 -.00005990  00000-0 -35885-3 0  9998,2 54084  53.2157 192.7408 0001357 116.8425 243.2706 15.08810415 83266,6917.971,95.439,540.775,538.897,0.0
54084.0,STARLINK-5183,PAYLOAD,2024-04-19 04:58:52,15.0883075,0.0001972,53.2161,189.4599,155.5441,204.5645,8.6869e-05,1.094e-05,0.0,0 STARLINK-5183,1 54084U 22136AK  24110.20754843  .00001094  00000-0  86869-4 0  9991,2 54084  53.2161 189.4599 0001972 155.5441 204.5645 15.08830750 83374,6917.909,95.438,541.138,538.409,0.0
54084.0,STARLINK-5183,PAYLOAD,2024-04-19 12:55:46,15.08875062,0.0001335,53.2165,187.9794,88.0143,272.1002,0.001026,0.00016094,0.0,0 STARLINK-5183,1 54084U 22136AK  24110.53873310  .00016094  00000-0  10260-2 0  9994,2 54084  53.2165 187.9794 0001335  88.0143 272.1002 15.08875062 83429,6917.773,95.435,540.562,538.715,0.0
54084.0,STARLINK-5183,PAYLOAD,2024-04-20 04:49:37,15.08860168,0.0001356,53.2187,185.0064,136.4206,223.6893,0.00037838,5.742e-05,0.0,0 STARLINK-5183,1 54084U 22136AK  24111.20113193  .00005742  00000-0  37838-3 0  9994,2 54084  53.2187 185.0064 0001356 136.4206 223.6893 15.08860168 83524,6917.819,95.436,540.622,538.746,0.0
54084.0,STARLINK-5183,PAYLOAD,2024-04-20 11:11:10,15.08867505,0.0001476,53.2182,183.8237,91.5436,268.5725,0.0005485,8.459e-05,0.0,0 STARLINK-5183,1 54084U 22136AK  24111.46608939  .00008459  00000-0  54850-3 0  9990,2 54084  53.2182 183.8237 0001476  91.5436 268.5725 15.08867505 83081,6917.796,95.436,540.682,538.64,0.0
54084.0,STARLINK-5183,PAYLOAD,2024-04-21 04:40:26,15.08814844,0.0001242,53.2173,180.5474,81.641,278.4723,-0.00085638,-0.00013882,0.0,0 STARLINK-5183,1 54084U 22136AK  24112.19475012 -.00013882  00000-0 -85638-3 0  9991,2 54084  53.2173 180.5474 0001242  81.6410 278.4723 15.08814844 83672,6917.957,95.439,540.681,538.963,0.0
54084.0,STARLINK-5183,PAYLOAD,2024-04-21 14:12:45,15.0882745,0.0001605,53.2173,178.7623,94.9261,265.1915,3.2356e-05,2.27e-06,0.0,0 STARLINK-5183,1 54084U 22136AK  24112.59219301  .00000227  00000-0  32356-4 0  9999,2 54084  53.2173 178.7623 0001605  94.9261 265.1915 15.08827450 83258,6917.919,95.438,540.894,538.673,0.0
54084.0,STARLINK-5183,PAYLOAD,2024-04-22 04:31:13,15.08841702,0.0001614,53.2178,176.0868,107.8714,252.2454,0.00052606,8.095e-05,0.0,0 STARLINK-5183,1 54084U 22136AK  24113.18835519  .00008095  00000-0  52606-3 0  9990,2 54084  53.2178 176.0868 0001614 107.8714 252.2454 15.08841702 83826,6917.875,95.437,540.857,538.624,0.0
54084.0,STARLINK-5183,PAYLOAD,2024-04-22 10:52:46,15.08869144,0.0001726,53.2174,174.8995,89.7383,270.3807,0.001626,0.00025705,0.0,0 STARLINK-5183,1 54084U 22136AK  24113.45331426  .00025705  00000-0  16260-2 0  9990,2 54084  53.2174 174.8995 0001726  89.7383 270.3807 15.08869144 83860,6917.791,95.436,540.85,538.462,0.0
54084.0,STARLINK-5183,PAYLOAD,2024-04-22 14:03:32,15.08876946,0.0001711,53.2174,174.3044,89.0022,271.1166,0.0016385,0.00025911,0.0,0 STARLINK-5183,1 54084U 22136AK  24113.58579092  .00025911  00000-0  16385-2 0  9994,2 54084  53.2174 174.3044 0001711  89.0022 271.1166 15.08876946 83402,6917.767,95.435,540.816,538.449,0.0
54084.0,STARLINK-5183,PAYLOAD,2024-04-23 09:08:09,15.08858606,0.0002957,53.2172,170.7284,138.5477,221.574,0.00026232,3.891e-05,0.0,0 STARLINK-5183,1 54084U 22136AK  24114.38066479  .00003891  00000-0  26232-3 0  9999,2 54084  53.2172 170.7284 0002957 138.5477 221.5740 15.08858606 84000,6917.824,95.436,541.734,537.643,0.0
54084.0,STARLINK-5183,PAYLOAD,2024-04-24 12:09:43,15.08844015,0.0001568,53.2167,165.6785,69.1402,290.9757,0.00017905,2.563e-05,0.0,0 STARLINK-5183,1 54084U 22136AK  24115.50675064  .00002563  00000-0  17905-3 0  9992,2 54084  53.2167 165.6785 0001568  69.1402 290.9757 15.08844015 84172,6917.868,95.437,540.818,538.648,0.0
54084.0,STARLINK-5183,PAYLOAD,2024-04-25 10:25:07,15.08847272,0.000185,53.2171,161.5196,59.304,300.8134,0.00013678,1.89e-05,0.0,0 STARLINK-5183,1 54084U 22136AK  24116.43411188  .00001890  00000-0  13678-3 0  9995,2 54084  53.2171 161.5196 0001850  59.3040 300.8134 15.08847272 83831,6917.858,95.437,541.003,538.443,0.0
54084.0,STARLINK-5183,PAYLOAD,2024-04-26 11:51:17,15.08851113,0.0001975,53.2177,156.7555,55.5036,304.6142,0.00027831,4.145e-05,0.0,0 STARLINK-5183,1 54084U 22136AK  24117.49394767  .00004145  00000-0  27831-3 0  9997,2 54084  53.2177 156.7555 0001975  55.5036 304.6142 15.08851113 84474,6917.846,95.437,541.078,538.345,0.0
54084.0,STARLINK-5183,PAYLOAD,2024-04-27 10:06:40,15.08855337,0.0001495,53.2154,152.5988,75.5947,284.5211,0.00018775,2.703e-05,0.0,0 STARLINK-5183,1 54084U 22136AK  24118.42130084  .00002703  00000-0  18775-3 0  9996,2 54084  53.2154 152.5988 0001495  75.5947 284.5211 15.08855337 84131,6917.834,95.437,540.733,538.664,0.0
54084.0,STARLINK-5183,PAYLOAD,2024-04-27 19:38:59,15.08840931,0.0001742,53.2173,150.8121,71.1451,288.973,-5.607e-05,-1.18e-05,0.0,0 STARLINK-5183,1 54084U 22136AK  24118.81874715 -.00001180  00000-0 -56070-4 0  9996,2 54084  53.2173 150.8121 0001742  71.1451 288.9730 15.08840931 84676,6917.878,95.437,540.948,538.537,0.0
54084.0,STARLINK-5183,PAYLOAD,2024-04-28 08:22:05,15.08828941,0.0001644,53.2175,148.4327,83.087,277.0309,-0.00019287,-3.355e-05,0.0,0 STARLINK-5183,1 54084U 22136AK  24119.34867534 -.00003355  00000-0 -19287-3 0  9990,2 54084  53.2175 148.4327 0001644  83.0870 277.0309 15.08828941 84754,6917.914,95.438,540.916,538.642,0.0
54084.0,STARLINK-5183,PAYLOAD,2024-04-28 19:29:47,15.08831218,0.0001668,53.2174,146.3521,81.9303,278.1878,-0.00010299,-1.926e-05,0.0,0 STARLINK-5183,1 54084U 22136AK  24119.81235734 -.00001926  00000-0 -10299-3 0  9999,2 54084  53.2174 146.3521 0001668  81.9303 278.1878 15.08831218 84349,6917.907,95.438,540.926,538.618,0.0
54084.0,STARLINK-5183,PAYLOAD,2024-04-29 05:02:06,15.08835841,0.0001291,53.218,144.5671,87.6323,272.4817,0.00014798,2.068e-05,0.0,0 STARLINK-5183,1 54084U 22136AK  24120.20979301  .00002068  00000-0  14798-3 0  9993,2 54084  53.2180 144.5671 0001291  87.6323 272.4817 15.08835841 84884,6917.893,95.438,540.651,538.865,0.0
